[{"OBJECT_NAME":"TRANSPORTER-13 OBJECT BC","OBJECT_ID":"2025-052BC","EPOCH":"2026-03-09T15:51:01.832832","MEAN_MOTION":14.94345554,"ECCENTRICITY":0.00011495,"INCLINATION":97.6967,"RA_OF_ASC_NODE":322.0668,"ARG_OF_PERICENTER":20.7823,"MEAN_ANOMALY":339.3444,"EPHEMERIS_TYPE":0,"CLASSIFICATION_TYPE":"U","NORAD_CAT_ID":63260,"ELEMENT_SET_NO":999,"REV_AT_EPOCH":5376,"BSTAR":0.00025427428,"MEAN_MOTION_DOT":2.678e-5,"MEAN_MOTION_DDOT":0},{"OBJECT_NAME":"H-2A DEB","OBJECT_ID":"2012-025H","EPOCH":"2026-03-09T22:19:09.565248","MEAN_MOTION":14.92558474,"ECCENTRICITY":0.00070619,"INCLINATION":98.1898,"RA_OF_ASC_NODE":197.4099,"ARG_OF_PERICENTER":85.2909,"MEAN_ANOMALY":274.9115,"EPHEMERIS_TYPE":0,"CLASSIFICATION_TYPE":"U","NORAD_CAT_ID":38347,"ELEMENT_SET_NO":999,"REV_AT_EPOCH":74399,"BSTAR":0.00053506866,"MEAN_MOTION_DOT":5.443e-5,"MEAN_MOTION_DDOT":0}]
